ONEWEB-0558             
1 56059U 23043P   26196.14898050  .00000107  00000+0  22824-3 0  9994
2 56059  87.9235 238.4137 0002418  95.4047 264.7362 13.21825756161933
ONEWEB-0559             
1 56060U 23043Q   26196.13720516  .00000047  00000+0  81348-4 0  9996
2 56060  87.9237 238.4116 0002224 100.6567 259.4817 13.21823886161944
ONEWEB-0566             
1 56061U 23043R   26196.13047735  .00000078  00000+0  15714-3 0  9999
2 56061  87.9237 238.4106 0002319 102.9345 257.2048 13.21824037161927
ONEWEB-0568             
1 56062U 23043S   26196.12981243  .00000105  00000+0  24081-3 0  9998
2 56062  87.9078 223.2207 0002122  86.0767 274.0606 13.16595932162658
ONEWEB-0574             
1 56063U 23043T   26196.12376174  .00000077  00000+0  15546-3 0  9994
2 56063  87.9241 238.4168 0001893  94.5328 265.6022 13.21826236161967
ONEWEB-0575             
1 56064U 23043U   26196.12347426  .00000034  00000+0  55037-4 0  9996
2 56064  87.9076 223.2183 0001774  84.5519 275.5814 13.16595853162649
ONEWEB-0576             
1 56065U 23043V   26196.10446865  .00000012  00000+0 -32050-5 0  9990
2 56065  87.9082 223.2305 0001888  88.6962 271.4385 13.16595691162633
ONEWEB-0577             
1 56066U 23043W   26196.11081067  .00000019  00000+0  15536-4 0  9996
2 56066  87.9081 223.2269 0001336  82.3731 277.7551 13.16595243162665
ONEWEB-0578             
1 56067U 23043X   26196.11030324  .00000066  00000+0  12887-3 0  9994
2 56067  87.9240 238.4157 0002103  89.3993 270.7381 13.21826082161923
ONEWEB-0579             
1 56068U 23043Y   26196.17756250 -.00000017  00000+0 -71807-4 0  9990
2 56068  87.9242 238.4011 0002087 103.4428 256.6939 13.21827650161943
ONEWEB-0581             
1 56069U 23043Z   26196.11714200  .00000021  00000+0  21980-4 0  9994
2 56069  87.9072 223.2363 0001512  89.7222 270.4082 13.16595207162631
ONEWEB-0609             
1 56070U 23043AA  26196.17047872  .00000086  00000+0  19479-3 0  9996
2 56070  87.8985 253.6353 0002169  97.9602 262.1774 13.15547599160110
ONEWEB-0613             
1 56071U 23043AB  26196.16810462  .00000043  00000+0  79748-4 0  9998
2 56071  87.8984 253.6483 0002223 104.8649 255.2727 13.15547990160110
ONEWEB-0630             
1 56072U 23043AC  26196.16334580  .00000168  00000+0  41099-3 0  9996
2 56072  87.8992 253.6226 0002146 104.5696 255.5672 13.15549971160100
ONEWEB-0632             
1 56073U 23043AD  26196.15860234  .00000195  00000+0  48353-3 0  9996
2 56073  87.8988 253.6401 0001883  99.5138 260.6205 13.15548457160109
ONEWEB-0633             
1 56074U 23043AE  26196.15226319  .00000223  00000+0  55743-3 0  9990
2 56074  87.8997 253.6190 0002408 106.9698 253.1697 13.15548587160086
