{"fetched_at":"2026-07-15T17:46:46.517Z","source":"https://celestrak.org/NORAD/elements/gp.php?GROUP=oneweb&FORMAT=JSON","constellation":"oneweb","records":[{"OBJECT_NAME":"ONEWEB-0558","OBJECT_ID":"2023-043P","EPOCH":"2026-07-15T03:34:31.915200","CLASSIFICATION_TYPE":"U","MEAN_MOTION":13.21825756,"ECCENTRICITY":0.0002418,"INCLINATION":87.9235,"RA_OF_ASC_NODE":238.4137,"ARG_OF_PERICENTER":95.4047,"MEAN_ANOMALY":264.7362,"EPHEMERIS_TYPE":0,"NORAD_CAT_ID":56059,"ELEMENT_SET_NO":999,"REV_AT_EPOCH":16193,"BSTAR":0.00022824,"MEAN_MOTION_DOT":0.00000107,"MEAN_MOTION_DDOT":0},{"OBJECT_NAME":"ONEWEB-0559","OBJECT_ID":"2023-043Q","EPOCH":"2026-07-15T03:17:34.525824","CLASSIFICATION_TYPE":"U","MEAN_MOTION":13.21823886,"ECCENTRICITY":0.0002224,"INCLINATION":87.9237,"RA_OF_ASC_NODE":238.4116,"ARG_OF_PERICENTER":100.6567,"MEAN_ANOMALY":259.4817,"EPHEMERIS_TYPE":0,"NORAD_CAT_ID":56060,"ELEMENT_SET_NO":999,"REV_AT_EPOCH":16194,"BSTAR":0.000081348,"MEAN_MOTION_DOT":4.7e-7,"MEAN_MOTION_DDOT":0},{"OBJECT_NAME":"ONEWEB-0566","OBJECT_ID":"2023-043R","EPOCH":"2026-07-15T03:07:53.243040","CLASSIFICATION_TYPE":"U","MEAN_MOTION":13.21824037,"ECCENTRICITY":0.0002319,"INCLINATION":87.9237,"RA_OF_ASC_NODE":238.4106,"ARG_OF_PERICENTER":102.9345,"MEAN_ANOMALY":257.2048,"EPHEMERIS_TYPE":0,"NORAD_CAT_ID":56061,"ELEMENT_SET_NO":999,"REV_AT_EPOCH":16192,"BSTAR":0.00015714,"MEAN_MOTION_DOT":7.8e-7,"MEAN_MOTION_DDOT":0},{"OBJECT_NAME":"ONEWEB-0568","OBJECT_ID":"2023-043S","EPOCH":"2026-07-15T03:06:55.793952","CLASSIFICATION_TYPE":"U","MEAN_MOTION":13.16595932,"ECCENTRICITY":0.0002122,"INCLINATION":87.9078,"RA_OF_ASC_NODE":223.2207,"ARG_OF_PERICENTER":86.0767,"MEAN_ANOMALY":274.0606,"EPHEMERIS_TYPE":0,"NORAD_CAT_ID":56062,"ELEMENT_SET_NO":999,"REV_AT_EPOCH":16265,"BSTAR":0.00024081,"MEAN_MOTION_DOT":0.00000105,"MEAN_MOTION_DDOT":0},{"OBJECT_NAME":"ONEWEB-0574","OBJECT_ID":"2023-043T","EPOCH":"2026-07-15T02:58:13.014336","CLASSIFICATION_TYPE":"U","MEAN_MOTION":13.21826236,"ECCENTRICITY":0.0001893,"INCLINATION":87.9241,"RA_OF_ASC_NODE":238.4168,"ARG_OF_PERICENTER":94.5328,"MEAN_ANOMALY":265.6022,"EPHEMERIS_TYPE":0,"NORAD_CAT_ID":56063,"ELEMENT_SET_NO":999,"REV_AT_EPOCH":16196,"BSTAR":0.00015546,"MEAN_MOTION_DOT":7.7e-7,"MEAN_MOTION_DDOT":0},{"OBJECT_NAME":"ONEWEB-0575","OBJECT_ID":"2023-043U","EPOCH":"2026-07-15T02:57:48.176064","CLASSIFICATION_TYPE":"U","MEAN_MOTION":13.16595853,"ECCENTRICITY":0.0001774,"INCLINATION":87.9076,"RA_OF_ASC_NODE":223.2183,"ARG_OF_PERICENTER":84.5519,"MEAN_ANOMALY":275.5814,"EPHEMERIS_TYPE":0,"NORAD_CAT_ID":56064,"ELEMENT_SET_NO":999,"REV_AT_EPOCH":16264,"BSTAR":0.000055037,"MEAN_MOTION_DOT":3.4e-7,"MEAN_MOTION_DDOT":0},{"OBJECT_NAME":"ONEWEB-0576","OBJECT_ID":"2023-043V","EPOCH":"2026-07-15T02:30:26.091360","CLASSIFICATION_TYPE":"U","MEAN_MOTION":13.16595691,"ECCENTRICITY":0.0001888,"INCLINATION":87.9082,"RA_OF_ASC_NODE":223.2305,"ARG_OF_PERICENTER":88.6962,"MEAN_ANOMALY":271.4385,"EPHEMERIS_TYPE":0,"NORAD_CAT_ID":56065,"ELEMENT_SET_NO":999,"REV_AT_EPOCH":16263,"BSTAR":-0.000003205,"MEAN_MOTION_DOT":1.2e-7,"MEAN_MOTION_DDOT":0},{"OBJECT_NAME":"ONEWEB-0577","OBJECT_ID":"2023-043W","EPOCH":"2026-07-15T02:39:34.041888","CLASSIFICATION_TYPE":"U","MEAN_MOTION":13.16595243,"ECCENTRICITY":0.0001336,"INCLINATION":87.9081,"RA_OF_ASC_NODE":223.2269,"ARG_OF_PERICENTER":82.3731,"MEAN_ANOMALY":277.7551,"EPHEMERIS_TYPE":0,"NORAD_CAT_ID":56066,"ELEMENT_SET_NO":999,"REV_AT_EPOCH":16266,"BSTAR":0.000015536,"MEAN_MOTION_DOT":1.9e-7,"MEAN_MOTION_DDOT":0},{"OBJECT_NAME":"ONEWEB-0578","OBJECT_ID":"2023-043X","EPOCH":"2026-07-15T02:38:50.199936","CLASSIFICATION_TYPE":"U","MEAN_MOTION":13.21826082,"ECCENTRICITY":0.0002103,"INCLINATION":87.924,"RA_OF_ASC_NODE":238.4157,"ARG_OF_PERICENTER":89.3993,"MEAN_ANOMALY":270.7381,"EPHEMERIS_TYPE":0,"NORAD_CAT_ID":56067,"ELEMENT_SET_NO":999,"REV_AT_EPOCH":16192,"BSTAR":0.00012887,"MEAN_MOTION_DOT":6.6e-7,"MEAN_MOTION_DDOT":0},{"OBJECT_NAME":"ONEWEB-0579","OBJECT_ID":"2023-043Y","EPOCH":"2026-07-15T04:15:41.400000","CLASSIFICATION_TYPE":"U","MEAN_MOTION":13.2182765,"ECCENTRICITY":0.0002087,"INCLINATION":87.9242,"RA_OF_ASC_NODE":238.4011,"ARG_OF_PERICENTER":103.4428,"MEAN_ANOMALY":256.6939,"EPHEMERIS_TYPE":0,"NORAD_CAT_ID":56068,"ELEMENT_SET_NO":999,"REV_AT_EPOCH":16194,"BSTAR":-0.000071807,"MEAN_MOTION_DOT":-1.7e-7,"MEAN_MOTION_DDOT":0},{"OBJECT_NAME":"ONEWEB-0581","OBJECT_ID":"2023-043Z","EPOCH":"2026-07-15T02:48:41.068800","CLASSIFICATION_TYPE":"U","MEAN_MOTION":13.16595207,"ECCENTRICITY":0.0001512,"INCLINATION":87.9072,"RA_OF_ASC_NODE":223.2363,"ARG_OF_PERICENTER":89.7222,"MEAN_ANOMALY":270.4082,"EPHEMERIS_TYPE":0,"NORAD_CAT_ID":56069,"ELEMENT_SET_NO":999,"REV_AT_EPOCH":16263,"BSTAR":0.00002198,"MEAN_MOTION_DOT":2.1e-7,"MEAN_MOTION_DDOT":0},{"OBJECT_NAME":"ONEWEB-0609","OBJECT_ID":"2023-043AA","EPOCH":"2026-07-15T04:05:29.361408","CLASSIFICATION_TYPE":"U","MEAN_MOTION":13.15547599,"ECCENTRICITY":0.0002169,"INCLINATION":87.8985,"RA_OF_ASC_NODE":253.6353,"ARG_OF_PERICENTER":97.9602,"MEAN_ANOMALY":262.1774,"EPHEMERIS_TYPE":0,"NORAD_CAT_ID":56070,"ELEMENT_SET_NO":999,"REV_AT_EPOCH":16011,"BSTAR":0.00019479,"MEAN_MOTION_DOT":8.6e-7,"MEAN_MOTION_DDOT":0},{"OBJECT_NAME":"ONEWEB-0613","OBJECT_ID":"2023-043AB","EPOCH":"2026-07-15T04:02:04.239168","CLASSIFICATION_TYPE":"U","MEAN_MOTION":13.1554799,"ECCENTRICITY":0.0002223,"INCLINATION":87.8984,"RA_OF_ASC_NODE":253.6483,"ARG_OF_PERICENTER":104.8649,"MEAN_ANOMALY":255.2727,"EPHEMERIS_TYPE":0,"NORAD_CAT_ID":56071,"ELEMENT_SET_NO":999,"REV_AT_EPOCH":16011,"BSTAR":0.000079748,"MEAN_MOTION_DOT":4.3e-7,"MEAN_MOTION_DDOT":0},{"OBJECT_NAME":"ONEWEB-0630","OBJECT_ID":"2023-043AC","EPOCH":"2026-07-15T03:55:13.077120","CLASSIFICATION_TYPE":"U","MEAN_MOTION":13.15549971,"ECCENTRICITY":0.0002146,"INCLINATION":87.8992,"RA_OF_ASC_NODE":253.6226,"ARG_OF_PERICENTER":104.5696,"MEAN_ANOMALY":255.5672,"EPHEMERIS_TYPE":0,"NORAD_CAT_ID":56072,"ELEMENT_SET_NO":999,"REV_AT_EPOCH":16010,"BSTAR":0.00041099,"MEAN_MOTION_DOT":0.00000168,"MEAN_MOTION_DDOT":0},{"OBJECT_NAME":"ONEWEB-0632","OBJECT_ID":"2023-043AD","EPOCH":"2026-07-15T03:48:23.242176","CLASSIFICATION_TYPE":"U","MEAN_MOTION":13.15548457,"ECCENTRICITY":0.0001883,"INCLINATION":87.8988,"RA_OF_ASC_NODE":253.6401,"ARG_OF_PERICENTER":99.5138,"MEAN_ANOMALY":260.6205,"EPHEMERIS_TYPE":0,"NORAD_CAT_ID":56073,"ELEMENT_SET_NO":999,"REV_AT_EPOCH":16010,"BSTAR":0.00048353,"MEAN_MOTION_DOT":0.00000195,"MEAN_MOTION_DDOT":0},{"OBJECT_NAME":"ONEWEB-0633","OBJECT_ID":"2023-043AE","EPOCH":"2026-07-15T03:39:15.539616","CLASSIFICATION_TYPE":"U","MEAN_MOTION":13.15548587,"ECCENTRICITY":0.0002408,"INCLINATION":87.8997,"RA_OF_ASC_NODE":253.619,"ARG_OF_PERICENTER":106.9698,"MEAN_ANOMALY":253.1697,"EPHEMERIS_TYPE":0,"NORAD_CAT_ID":56074,"ELEMENT_SET_NO":999,"REV_AT_EPOCH":16008,"BSTAR":0.00055743,"MEAN_MOTION_DOT":0.00000223,"MEAN_MOTION_DDOT":0}]}
